$$SOE
2459580.500000000, A.D. 2022-Jan-01 00:00:00.0000, -1.171664914828814E+07, -4.735246220276306E+08, 1.791210459428379E+07,
2459587.500000000, A.D. 2022-Jan-08 00:00:00.0000, -2.989619717919599E+06, -4.740794145982351E+08, 1.540092070577922E+07,
2459594.500000000, A.D. 2022-Jan-15 00:00:00.0000, 5.738781223376080E+06, -4.744185382388626E+08, 1.288272912889582E+07,
2459601.500000000, A.D. 2022-Jan-22 00:00:00.0000, 1.446459264668966E+07, -4.745422330575614E+08, 1.035868588096273E+07,
2459608.500000000, A.D. 2022-Jan-29 00:00:00.0000, 2.318386801750471E+07, -4.744507772772685E+08, 7.829944305379510E+06,
2459615.500000000, A.D. 2022-Feb-05 00:00:00.0000, 3.189267170722447E+07, -4.741444875688842E+08, 5.297655608798087E+06,
2459622.500000000, A.D. 2022-Feb-12 00:00:00.0000, 4.058707758541922E+07, -4.736237205402435E+08, 2.762969113869607E+06,
2459629.500000000, A.D. 2022-Feb-19 00:00:00.0000, 4.926316846895765E+07, -4.728888730119973E+08, 2.270325423925519E+05,
2459636.500000000, A.D. 2022-Feb-26 00:00:00.0000, 5.791703511722066E+07, -4.719403818030591E+08, -2.309007610312939E+06,
2459643.500000000, A.D. 2022-Mar-05 00:00:00.0000, 6.654477493323664E+07, -4.707787236419162E+08, -4.844005675308108E+06,
2459650.500000000, A.D. 2022-Mar-12 00:00:00.0000, 7.514249059316424E+07, -4.694044152688738E+08, -7.376816410468072E+06,
2459657.500000000, A.D. 2022-Mar-19 00:00:00.0000, 8.370628867592148E+07, -4.678180137004935E+08, -9.906294606237411E+06,
2459664.500000000, A.D. 2022-Mar-26 00:00:00.0000, 9.223227831644820E+07, -4.660201166616213E+08, -1.243129469981864E+07,
2459671.500000000, A.D. 2022-Apr-02 00:00:00.0000, 1.007165699517873E+08, -4.640113632409652E+08, -1.495067040911385E+07,
2459678.500000000, A.D. 2022-Apr-09 00:00:00.0000, 1.091552744332598E+08, -4.617924347663932E+08, -1.746327441145825E+07,
2459685.500000000, A.D. 2022-Apr-16 00:00:00.0000, 1.175445028624259E+08, -4.593640552473195E+08, -1.996795804689980E+07,
2459692.500000000, A.D. 2022-Apr-23 00:00:00.0000, 1.258803658816756E+08, -4.567269903008040E+08, -2.246357084143046E+07,
2459699.500000000, A.D. 2022-Apr-30 00:00:00.0000, 1.341589705487142E+08, -4.538820468057473E+08, -2.494895986244804E+07,
2459706.500000000, A.D. 2022-May-07 00:00:00.0000, 1.423764178582828E+08, -4.508300752568510E+08, -2.742296934892645E+07,
2459713.500000000, A.D. 2022-May-14 00:00:00.0000, 1.505288023026007E+08, -4.475719717795477E+08, -2.988444049567658E+07,
2459720.500000000, A.D. 2022-May-21 00:00:00.0000, 1.586122114422078E+08, -4.441086790480664E+08, -3.233221114364403E+07,
2459727.500000000, A.D. 2022-May-28 00:00:00.0000, 1.666227250113523E+08, -4.404411870674349E+08, -3.476511541106328E+07,
2459734.500000000, A.D. 2022-Jun-04 00:00:00.0000, 1.745564138376248E+08, -4.365705341353252E+08, -3.718198331698683E+07,
2459741.500000000, A.D. 2022-Jun-11 00:00:00.0000, 1.824093387222763E+08, -4.324978079849106E+08, -3.958164041088670E+07,
2459748.500000000, A.D. 2022-Jun-18 00:00:00.0000, 1.901775493210331E+08, -4.282241470981321E+08, -4.196290741138732E+07,
2459755.500000000, A.D. 2022-Jun-25 00:00:00.0000, 1.978570830560216E+08, -4.237507422242867E+08, -4.432459986008346E+07,
2459762.500000000, A.D. 2022-Jul-02 00:00:00.0000, 2.054439641947187E+08, -4.190788381711074E+08, -4.666552780863726E+07,
2459769.500000000, A.D. 2022-Jul-09 00:00:00.0000, 2.129342034886782E+08, -4.142097356933971E+08, -4.898449556103969E+07,
2459776.500000000, A.D. 2022-Jul-16 00:00:00.0000, 2.203237983193014E+08, -4.091447923991687E+08, -5.128030137804037E+07,
2459783.500000000, A.D. 2022-Jul-23 00:00:00.0000, 2.276087311541445E+08, -4.038854225979895E+08, -5.355173693619230E+07,
2459790.500000000, A.D. 2022-Jul-30 00:00:00.0000, 2.347849663998599E+08, -3.984330994463506E+08, -5.579758682358095E+07,
2459797.500000000, A.D. 2022-Aug-06 00:00:00.0000, 2.418484492542011E+08, -3.927893587427316E+08, -5.801662834971954E+07,
2459804.500000000, A.D. 2022-Aug-13 00:00:00.0000, 2.487951057388627E+08, -3.869558016205097E+08, -6.020763136963537E+07,
2459811.500000000, A.D. 2022-Aug-20 00:00:00.0000, 2.556208423488802E+08, -3.809340966456204E+08, -6.236935802019969E+07,
2459818.500000000, A.D. 2022-Aug-27 00:00:00.0000, 2.623215453918636E+08, -3.747259820492313E+08, -6.450056243540262E+07,
2459825.500000000, A.D. 2022-Sep-03 00:00:00.0000, 2.688930802702910E+08, -3.683332682099008E+08, -6.659999047366585E+07,
2459832.500000000, A.D. 2022-Sep-10 00:00:00.0000, 2.753312908022994E+08, -3.617578403653965E+08, -6.866637946500710E+07,
2459839.500000000, A.D. 2022-Sep-17 00:00:00.0000, 2.816319986156811E+08, -3.550016615597875E+08, -7.069845798252040E+07,
2459846.500000000, A.D. 2022-Sep-24 00:00:00.0000, 2.877910026810590E+08, -3.480667758799574E+08, -7.269494564955939E+07,
2459853.500000000, A.D. 2022-Oct-01 00:00:00.0000, 2.938040792307950E+08, -3.409553120066841E+08, -7.465455300832134E+07,
2459860.500000000, A.D. 2022-Oct-08 00:00:00.0000, 2.996669824789506E+08, -3.336694865617260E+08, -7.657598144678961E+07,
2459867.500000000, A.D. 2022-Oct-15 00:00:00.0000, 3.053754452190472E+08, -3.262116060564811E+08, -7.845792300324231E+07,
2459874.500000000, A.D. 2022-Oct-22 00:00:00.0000, 3.109251771257915E+08, -3.185840691304958E+08, -8.029905998849793E+07,
2459881.500000000, A.D. 2022-Oct-29 00:00:00.0000, 3.163118632663267E+08, -3.107893716756283E+08, -8.209806486942713E+07,
2459888.500000000, A.D. 2022-Nov-05 00:00:00.0000, 3.215311649301646E+08, -3.028301121067148E+08, -8.385360038507985E+07,
2459895.500000000, A.D. 2022-Nov-12 00:00:00.0000, 3.265787208243889E+08, -2.947089955146856E+08, -8.556431961495380E+07,
2459902.500000000, A.D. 2022-Nov-19 00:00:00.0000, 3.314501479266191E+08, -2.864288376595228E+08, -8.722886601492718E+07,
2459909.500000000, A.D. 2022-Nov-26 00:00:00.0000, 3.361410422704948E+08, -2.779925692032175E+08, -8.884587348110333E+07,
2459916.500000000, A.D. 2022-Dec-03 00:00:00.0000, 3.406469798432301E+08, -2.694032401967887E+08, -9.041396646174581E+07,
2459923.500000000, A.D. 2022-Dec-10 00:00:00.0000, 3.449635176552424E+08, -2.606640248050782E+08, -9.193176012429592E+07,
2459930.500000000, A.D. 2022-Dec-17 00:00:00.0000, 3.490861950216112E+08, -2.517782262965232E+08, -9.339786058638069E+07,
2459937.500000000, A.D. 2022-Dec-24 00:00:00.0000, 3.530105351799623E+08, -2.427492823651591E+08, -9.481086523085670E+07,
2459944.500000000, A.D. 2022-Dec-31 00:00:00.0000, 3.567320476182904E+08, -2.335807706773243E+08, -9.616936313350379E+07,
2459951.500000000, A.D. 2023-Jan-07 00:00:00.0000, 3.602462312531833E+08, -2.242764136798545E+08, -9.747193554090020E+07,
2459958.500000000, A.D. 2023-Jan-14 00:00:00.0000, 3.635485765104687E+08, -2.148400821722426E+08, -9.871715618280150E+07,
2459965.500000000, A.D. 2023-Jan-21 00:00:00.0000, 3.666345656820924E+08, -2.052758008126459E+08, -9.990359162423313E+07,
2459972.500000000, A.D. 2023-Jan-28 00:00:00.0000, 3.694996752473778E+08, -1.955877557467154E+08, -1.010298020149078E+08,
2459979.500000000, A.D. 2023-Feb-04 00:00:00.0000, 3.721393799748814E+08, -1.857803013244084E+08, -1.020943419762171E+08,
2459986.500000000, A.D. 2023-Feb-11 00:00:00.0000, 3.745491570369851E+08, -1.758579660924904E+08, -1.030957614852268E+08,
2459993.500000000, A.D. 2023-Feb-18 00:00:00.0000, 3.767244901014965E+08, -1.658254588795980E+08, -1.040326068258262E+08,
2460000.500000000, A.D. 2023-Feb-25 00:00:00.0000, 3.786608736905360E+08, -1.556876751272869E+08, -1.049034216529551E+08,
2460007.500000000, A.D. 2023-Mar-04 00:00:00.0000, 3.803538179369556E+08, -1.454497034371079E+08, -1.057067481863185E+08,
2460014.500000000, A.D. 2023-Mar-11 00:00:00.0000, 3.817988537960789E+08, -1.351168323191895E+08, -1.064411285449451E+08,
2460021.500000000, A.D. 2023-Mar-18 00:00:00.0000, 3.829915387900447E+08, -1.246945571750718E+08, -1.071051062400367E+08,
2460028.500000000, A.D. 2023-Mar-25 00:00:00.0000, 3.839274635186146E+08, -1.141885875421235E+08, -1.076972278577468E+08,
2460035.500000000, A.D. 2023-Apr-01 00:00:00.0000, 3.846022593921632E+08, -1.036048541817302E+08, -1.082160449477880E+08,
2460042.500000000, A.D. 2023-Apr-08 00:00:00.0000, 3.850116070060878E+08, -9.294951475766115E+07, -1.086601159716200E+08,
2460049.500000000, A.D. 2023-Apr-15 00:00:00.0000, 3.851512428572275E+08, -8.222895918113677E+07, -1.090280081982889E+08,
2460056.500000000, A.D. 2023-Apr-22 00:00:00.0000, 3.850169662462620E+08, -7.144981764205165E+07, -1.093182999746794E+08,
2460063.500000000, A.D. 2023-Apr-29 00:00:00.0000, 3.846046491340251E+08, -6.061896903388844E+07, -1.095295834473754E+08,
2460070.500000000, A.D. 2023-May-06 00:00:00.0000, 3.839102472264982E+08, -4.974354794590193E+07, -1.096604674404166E+08,
2460077.500000000, A.D. 2023-May-13 00:00:00.0000, 3.829298113474208E+08, -3.883095106647511E+07, -1.097095804843842E+08,
2460084.500000000, A.D. 2023-May-20 00:00:00.0000, 3.816594993673193E+08, -2.788884343369871E+07, -1.096755740704078E+08,
2460091.500000000, A.D. 2023-May-27 00:00:00.0000, 3.800955889156194E+08, -1.692516450137592E+07, -1.095571261610290E+08,
2460098.500000000, A.D. 2023-Jun-03 00:00:00.0000, 3.782344909648725E+08, -5.948133926627904E+06, -1.093529449725873E+08,
2460105.500000000, A.D. 2023-Jun-10 00:00:00.0000, 3.760727643401650E+08, 5.033742981827833E+06, -1.090617730435929E+08,
2460112.500000000, A.D. 2023-Jun-17 00:00:00.0000, 3.736071312691139E+08, 1.601167017606450E+07, -1.086823916127716E+08,
2460119.500000000, A.D. 2023-Jun-24 00:00:00.0000, 3.708344943138357E+08, 2.697655628567731E+07, -1.082136253408202E+08,
2460126.500000000, A.D. 2023-Jul-01 00:00:00.0000, 3.677519549522100E+08, 3.791901146375266E+07, -1.076543473381674E+08,
2460133.500000000, A.D. 2023-Jul-08 00:00:00.0000, 3.643568321449704E+08, 4.882934659208608E+07, -1.070034842840525E+08,
2460140.500000000, A.D. 2023-Jul-15 00:00:00.0000, 3.606466796207595E+08, 5.969757212959295E+07, -1.062600217580056E+08,
$$EOE